IRIDIUM 26              
1 24903U 97043A   26016.92519790  .00000356  00000+0  11267-3 0  9991
2 24903  86.3946  20.7672 0002411  90.3811 269.7663 14.37359355487441
IRIDIUM 22              
1 24907U 97043E   26016.96343145  .00000294  00000+0  94258-4 0  9991
2 24907  86.3945  24.4744 0002253  87.1406 273.0049 14.36148991487451
DUMMY MASS 1            
1 24925U 97048A   26016.52482459  .00000289  00000+0  28914-4 0  9990
2 24925  86.3318  36.6008 0008935 104.6680 255.5536 14.87214729536837
DUMMY MASS 2            
1 24926U 97048B   26016.58992915  .00000283  00000+0  28437-4 0  9994
2 24926  86.3317  38.2180 0009506 114.1199 246.1021 14.86965092536618
IRIDIUM 29              
1 24944U 97051A   26016.83861041  .00000310  00000+0  98522-4 0  9994
2 24944  86.3920  54.1990 0002068  89.3032 270.8402 14.36692192483946
IRIDIUM 33              
1 24946U 97051C   26016.84945861  .00000269  00000+0  87554-4 0  9996
2 24946  86.3835  53.4768 0010027  98.8041 261.4291 14.35063530483384
IRIDIUM 28              
1 24948U 97051E   26016.81686511  .00000273  00000+0  84588-4 0  9998
2 24948  86.3926  51.6020 0002767  93.8526 266.2988 14.37592875484538
IRIDIUM 36              
1 24967U 97056C   26016.88610327  .00000340  00000+0  10644-3 0  9999
2 24967  86.3941  83.2042 0002428  90.9990 269.1486 14.37819066482928
